[{"OBJECT_NAME":"STARLINK-31499","OBJECT_ID":"2024-046S","EPOCH":"2026-03-09T11:59:40.796736","MEAN_MOTION":15.30186181,"ECCENTRICITY":0.00011893,"INCLINATION":53.1605,"RA_OF_ASC_NODE":155.9918,"ARG_OF_PERICENTER":93.034,"MEAN_ANOMALY":267.0797,"EPHEMERIS_TYPE":0,"CLASSIFICATION_TYPE":"U","NORAD_CAT_ID":59217,"ELEMENT_SET_NO":999,"REV_AT_EPOCH":11301,"BSTAR":1.310289e-6,"MEAN_MOTION_DOT":-3.2e-6,"MEAN_MOTION_DDOT":0},{"OBJECT_NAME":"COSMOS 1328","OBJECT_ID":"1981-117A","EPOCH":"2026-03-09T17:51:53.113536","MEAN_MOTION":15.33902077,"ECCENTRICITY":0.00108717,"INCLINATION":82.4939,"RA_OF_ASC_NODE":350.453,"ARG_OF_PERICENTER":167.9725,"MEAN_ANOMALY":192.1779,"EPHEMERIS_TYPE":0,"CLASSIFICATION_TYPE":"U","NORAD_CAT_ID":12987,"ELEMENT_SET_NO":999,"REV_AT_EPOCH":41406,"BSTAR":0.00040501644,"MEAN_MOTION_DOT":0.00013342,"MEAN_MOTION_DDOT":0}]
